HAWK-5A                 
1 52757U 22057AB  26189.38828727  .00011795  00000+0  19663-3 0  9993
2 52757  97.6626 349.6203 0003995   4.7180 355.4108 15.52155055229639
HAWK-6B                 
1 55324U 23011A   26189.29733741  .00002286  00000+0  10299-3 0  9999
2 55324  40.4970 228.9275 0003151 202.6849 157.3821 15.23113138191063
HAWK-6C                 
1 55326U 23011C   26189.49341997  .00002857  00000+0  12668-3 0  9997
2 55326  40.4959 224.6190 0003589 191.9345 168.1380 15.23115956191102
HAWK-6A                 
1 55327U 23011D   26189.49345291  .00002757  00000+0  12252-3 0  9997
2 55327  40.4968 226.2458 0003128 189.8545 170.2204 15.23116716191109
HAWK-7A                 
1 56191U 23054P   26189.59765947  .00003788  00000+0  14311-3 0  9992
2 56191  97.2675  76.3907 0002177   2.1486 357.9763 15.27586909180292
HAWK-7B                 
1 56193U 23054R   26189.59758265  .00003724  00000+0  14071-3 0  9992
2 56193  97.2702  74.6619 0002016  28.7267 331.4084 15.27589909180295
HAWK-7C                 
1 56200U 23054Y   26189.59747244  .00003712  00000+0  14029-3 0  9996
2 56200  97.2678  75.4240 0001688  14.6461 345.4827 15.27588010180291
